[{"OBJECT_NAME":"GEESAT-2 09","OBJECT_ID":"2024-023J","EPOCH":"2026-03-09T21:37:55.305984","MEAN_MOTION":14.82902354,"ECCENTRICITY":0.00224852,"INCLINATION":50.0021,"RA_OF_ASC_NODE":93.8304,"ARG_OF_PERICENTER":345.4552,"MEAN_ANOMALY":14.5736,"EPHEMERIS_TYPE":0,"CLASSIFICATION_TYPE":"U","NORAD_CAT_ID":58913,"ELEMENT_SET_NO":999,"REV_AT_EPOCH":11418,"BSTAR":0.00034180683,"MEAN_MOTION_DOT":2.583e-5,"MEAN_MOTION_DDOT":0},{"OBJECT_NAME":"TIROS 6 DEB","OBJECT_ID":"1962-047F","EPOCH":"2026-02-26T12:33:51.606144","MEAN_MOTION":14.85735462,"ECCENTRICITY":0.000895,"INCLINATION":58.308,"RA_OF_ASC_NODE":80.7183,"ARG_OF_PERICENTER":159.6882,"MEAN_ANOMALY":200.4519,"EPHEMERIS_TYPE":0,"CLASSIFICATION_TYPE":"U","NORAD_CAT_ID":29006,"ELEMENT_SET_NO":999,"REV_AT_EPOCH":68518,"BSTAR":9.0328e-5,"MEAN_MOTION_DOT":5.8e-6,"MEAN_MOTION_DDOT":0}]
